{
  "type": "FeatureCollection",
  "features": [
    {
      "type": "Feature",
      "properties": {
        "norad_id": 66541,
        "name": "STARLINK-35796",
        "group": "last-30-days",
        "lat": -9.370186330618406,
        "lon": -92.91827713727746,
        "alt_km": 401.44385326149586,
        "timestamp": "2025-12-08T19:31:47.636544+00:00",
        "meta_object_name": "STARLINK-35796",
        "meta_object_id": "2025-265AB",
        "meta_epoch": "2025-12-08T06:00:02.999808",
        "meta_mean_motion": 15.57925963,
        "meta_eccentricity": 0.00012775,
        "meta_inclination": 43.0007,
        "meta_ra_of_asc_node": 80.2103,
        "meta_arg_of_pericenter": 263.8519,
        "meta_mean_anomaly": 7.0074,
        "meta_ephemeris_type": 0,
        "meta_classification_type": "U",
        "meta_norad_cat_id": 66541,
        "meta_element_set_no": 999,
        "meta_rev_at_epoch": 427,
        "meta_bstar": -0.029472086,
        "meta_mean_motion_dot": -0.01986294,
        "meta_mean_motion_ddot": 0,
        "tle_line1": "1 66541U 25265AB  25342.25003472 -.01986294  00000+0 -29472-1 0  9996",
        "tle_line2": "2 66541  43.0007  80.2103 0001277 263.8519   7.0074 15.57925963  4276"
      },
      "geometry": {
        "type": "Point",
        "coordinates": [
          -92.91827713727746,
          -9.370186330618406
        ]
      }
    },
    {
      "type": "Feature",
      "properties": {
        "norad_id": 66542,
        "name": "STARLINK-35833",
        "group": "last-30-days",
        "lat": -10.649355476231479,
        "lon": -91.48139359943451,
        "alt_km": 401.5865661048483,
        "timestamp": "2025-12-08T19:31:47.636553+00:00",
        "meta_object_name": "STARLINK-35833",
        "meta_object_id": "2025-265AC",
        "meta_epoch": "2025-12-08T06:00:02.999808",
        "meta_mean_motion": 15.57931077,
        "meta_eccentricity": 0.00013481,
        "meta_inclination": 43.0004,
        "meta_ra_of_asc_node": 80.2054,
        "meta_arg_of_pericenter": 265.21,
        "meta_mean_anomaly": 7.5648,
        "meta_ephemeris_type": 0,
        "meta_classification_type": "U",
        "meta_norad_cat_id": 66542,
        "meta_element_set_no": 999,
        "meta_rev_at_epoch": 427,
        "meta_bstar": -0.029629661,
        "meta_mean_motion_dot": -0.01995978,
        "meta_mean_motion_ddot": 0,
        "tle_line1": "1 66542U 25265AC  25342.25003472 -.01995978  00000+0 -29630-1 0  9992",
        "tle_line2": "2 66542  43.0004  80.2054 0001348 265.2100   7.5648 15.57931077  4275"
      },
      "geometry": {
        "type": "Point",
        "coordinates": [
          -91.48139359943451,
          -10.649355476231479
        ]
      }
    },
    {
      "type": "Feature",
      "properties": {
        "norad_id": 66543,
        "name": "STARLINK-35315",
        "group": "last-30-days",
        "lat": -11.923636808604229,
        "lon": -90.03064697056175,
        "alt_km": 401.7329865192087,
        "timestamp": "2025-12-08T19:31:47.636564+00:00",
        "meta_object_name": "STARLINK-35315",
        "meta_object_id": "2025-265AD",
        "meta_epoch": "2025-12-08T06:00:02.999808",
        "meta_mean_motion": 15.57932878,
        "meta_eccentricity": 0.00014047,
        "meta_inclination": 43.0006,
        "meta_ra_of_asc_node": 80.2004,
        "meta_arg_of_pericenter": 267.4143,
        "meta_mean_anomaly": 7.2761,
        "meta_ephemeris_type": 0,
        "meta_classification_type": "U",
        "meta_norad_cat_id": 66543,
        "meta_element_set_no": 999,
        "meta_rev_at_epoch": 416,
        "meta_bstar": -0.029680008,
        "meta_mean_motion_dot": -0.01999106,
        "meta_mean_motion_ddot": 0,
        "tle_line1": "1 66543U 25265AD  25342.25003472 -.01999106  00000+0 -29680-1 0  9995",
        "tle_line2": "2 66543  43.0006  80.2004 0001404 267.4143   7.2761 15.57932878  4168"
      },
      "geometry": {
        "type": "Point",
        "coordinates": [
          -90.03064697056175,
          -11.923636808604229
        ]
      }
    },
    {
      "type": "Feature",
      "properties": {
        "norad_id": 66544,
        "name": "STARLINK-35728",
        "group": "last-30-days",
        "lat": -13.194181959157897,
        "lon": -88.56144251743915,
        "alt_km": 401.7610027702831,
        "timestamp": "2025-12-08T19:31:47.636598+00:00",
        "meta_object_name": "STARLINK-35728",
        "meta_object_id": "2025-265AE",
        "meta_epoch": "2025-12-08T06:00:02.999808",
        "meta_mean_motion": 15.57930009,
        "meta_eccentricity": 0.00013965,
        "meta_inclination": 43.0001,
        "meta_ra_of_asc_node": 80.1954,
        "meta_arg_of_pericenter": 265.2248,
        "meta_mean_anomaly": 11.3849,
        "meta_ephemeris_type": 0,
        "meta_classification_type": "U",
        "meta_norad_cat_id": 66544,
        "meta_element_set_no": 999,
        "meta_rev_at_epoch": 427,
        "meta_bstar": -0.029608658,
        "meta_mean_motion_dot": -0.01994704,
        "meta_mean_motion_ddot": 0,
        "tle_line1": "1 66544U 25265AE  25342.25003472 -.01994704  00000+0 -29609-1 0  9996",
        "tle_line2": "2 66544  43.0001  80.1954 0001396 265.2248  11.3849 15.57930009  4278"
      },
      "geometry": {
        "type": "Point",
        "coordinates": [
          -88.56144251743915,
          -13.194181959157897
        ]
      }
    },
    {
      "type": "Feature",
      "properties": {
        "norad_id": 66545,
        "name": "SHIJIAN-30A",
        "group": "last-30-days",
        "lat": 48.482735025870056,
        "lon": 54.0696129887754,
        "alt_km": 512.7808592701813,
        "timestamp": "2025-12-08T19:31:47.636608+00:00",
        "meta_object_name": "SHIJIAN-30A",
        "meta_object_id": "2025-266A",
        "meta_epoch": "2025-12-08T08:08:02.995584",
        "meta_mean_motion": 15.1551276,
        "meta_eccentricity": 0.00127993,
        "meta_inclination": 51.7996,
        "meta_ra_of_asc_node": 353.4787,
        "meta_arg_of_pericenter": 340.4731,
        "meta_mean_anomaly": 19.5754,
        "meta_ephemeris_type": 0,
        "meta_classification_type": "U",
        "meta_norad_cat_id": 66545,
        "meta_element_set_no": 999,
        "meta_rev_at_epoch": 291,
        "meta_bstar": 0.00067614531,
        "meta_mean_motion_dot": 0.00012707,
        "meta_mean_motion_ddot": 0,
        "tle_line1": "1 66545U 25266A   25342.33892356  .00012707  00000+0  67615-3 0  9996",
        "tle_line2": "2 66545  51.7996 353.4787 0012799 340.4731  19.5754 15.15512760  2918"
      },
      "geometry": {
        "type": "Point",
        "coordinates": [
          54.0696129887754,
          48.482735025870056
        ]
      }
    },
    {
      "type": "Feature",
      "properties": {
        "norad_id": 66546,
        "name": "SHIJIAN-30B",
        "group": "last-30-days",
        "lat": 46.95523524691996,
        "lon": 48.738564300666404,
        "alt_km": 511.84027052349575,
        "timestamp": "2025-12-08T19:31:47.636617+00:00",
        "meta_object_name": "SHIJIAN-30B",
        "meta_object_id": "2025-266B",
        "meta_epoch": "2025-12-08T08:09:06.870240",
        "meta_mean_motion": 15.15601642,
        "meta_eccentricity": 0.00104646,
        "meta_inclination": 51.7978,
        "meta_ra_of_asc_node": 353.4808,
        "meta_arg_of_pericenter": 343.5769,
        "meta_mean_anomaly": 16.4867,
        "meta_ephemeris_type": 0,
        "meta_classification_type": "U",
        "meta_norad_cat_id": 66546,
        "meta_element_set_no": 999,
        "meta_rev_at_epoch": 291,
        "meta_bstar": 0.00078891908,
        "meta_mean_motion_dot": 0.00014912,
        "meta_mean_motion_ddot": 0,
        "tle_line1": "1 66546U 25266B   25342.33966285  .00014912  00000+0  78892-3 0  9999",
        "tle_line2": "2 66546  51.7978 353.4808 0010464 343.5769  16.4867 15.15601642  2914"
      },
      "geometry": {
        "type": "Point",
        "coordinates": [
          48.738564300666404,
          46.95523524691996
        ]
      }
    },
    {
      "type": "Feature",
      "properties": {
        "norad_id": 66547,
        "name": "SHIJIAN-30C",
        "group": "last-30-days",
        "lat": 45.290875852972725,
        "lon": 43.97402713706714,
        "alt_km": 512.5322603007589,
        "timestamp": "2025-12-08T19:31:47.636627+00:00",
        "meta_object_name": "SHIJIAN-30C",
        "meta_object_id": "2025-266C",
        "meta_epoch": "2025-12-08T06:35:08.461536",
        "meta_mean_motion": 15.15611445,
        "meta_eccentricity": 0.00113845,
        "meta_inclination": 51.7987,
        "meta_ra_of_asc_node": 353.7954,
        "meta_arg_of_pericenter": 335.5971,
        "meta_mean_anomaly": 24.4466,
        "meta_ephemeris_type": 0,
        "meta_classification_type": "U",
        "meta_norad_cat_id": 66547,
        "meta_element_set_no": 999,
        "meta_rev_at_epoch": 290,
        "meta_bstar": 0.00068804431,
        "meta_mean_motion_dot": 0.00012968,
        "meta_mean_motion_ddot": 0,
        "tle_line1": "1 66547U 25266C   25342.27440349  .00012968  00000+0  68804-3 0  9992",
        "tle_line2": "2 66547  51.7987 353.7954 0011384 335.5971  24.4466 15.15611445  2903"
      },
      "geometry": {
        "type": "Point",
        "coordinates": [
          43.97402713706714,
          45.290875852972725
        ]
      }
    }
  ]
}